0 GSTAR 4
1 20946U 90100B   13279.41847001  .00000058  00000-0  10000-3 0  9197
2 20946 009.8054 049.3109 0005381 146.5422 213.5206 00.99140828 78326
0 GSTAR 4
1 20946U 90100B   13281.43566303  .00000065  00000-0  10000-3 0  9205
2 20946 009.8090 049.2875 0005426 146.9866 213.0618 00.99141216 78347
0 GSTAR 4
1 20946U 90100B   13283.45288951  .00000058  00000-0  10000-3 0  9212
2 20946 009.8126 049.2642 0005402 147.7573 212.2893 00.99141768 78367
0 GSTAR 4
1 20946U 90100B   13287.48729775  .00000009  00000-0  10000-3 0  9220
2 20946 009.8199 049.2180 0005538 148.6054 211.4404 00.99143309 78405
0 GSTAR 4
1 20946U 90100B   13289.50442455 -.00000029  00000-0  10000-3 0  9236
2 20946 009.8235 049.1948 0005587 148.9399 211.0840 00.99144148 78420
0 GSTAR 4
1 20946U 90100B   13290.51298619 -.00000052  00000-0  10000-3 0  9247
2 20946 009.8253 049.1832 0005376 152.3495 207.6599 00.99144547 78430
0 GSTAR 4
1 20946U 90100B   13290.51299251  .00000000  00000-0  10000-3 0  9242
2 20946 009.8244 049.1833 0006078 135.2481 224.7907 00.99141010 78431
0 GSTAR 4
1 20946U 90100B   13292.53009037 -.00000100  00000-0  10000-3 0  9250
2 20946 009.8290 049.1595 0005047 158.4129 201.5732 00.99145375 78457
